[{"OBJECT_NAME":"STARLINK-4496","OBJECT_ID":"2022-097AA","EPOCH":"2023-09-07T12:27:52.305696","MEAN_MOTION":15.08842321,"ECCENTRICITY":0.0001473,"INCLINATION":53.2163,"RA_OF_ASC_NODE":257.9922,"ARG_OF_PERICENTER":88.7044,"MEAN_ANOMALY":271.4117,"EPHEMERIS_TYPE":0,"CLASSIFICATION_TYPE":"U","NORAD_CAT_ID":53412,"ELEMENT_SET_NO":999,"REV_AT_EPOCH":6015,"BSTAR":1.9458e-5,"MEAN_MOTION_DOT":2.2e-7,"MEAN_MOTION_DDOT":0},{"OBJECT_NAME":"STARLINK-4500","OBJECT_ID":"2022-097AB","EPOCH":"2023-09-07T17:24:38.038464","MEAN_MOTION":15.08838859,"ECCENTRICITY":0.0001492,"INCLINATION":53.2171,"RA_OF_ASC_NODE":257.0643,"ARG_OF_PERICENTER":85.3362,"MEAN_ANOMALY":274.78,"EPHEMERIS_TYPE":0,"CLASSIFICATION_TYPE":"U","NORAD_CAT_ID":53413,"ELEMENT_SET_NO":999,"REV_AT_EPOCH":6067,"BSTAR":1.487e-5,"MEAN_MOTION_DOT":-5.1e-7,"MEAN_MOTION_DDOT":0},{"OBJECT_NAME":"STARLINK-4304","OBJECT_ID":"2022-097AC","EPOCH":"2023-09-08T01:05:39.771744","MEAN_MOTION":15.08834455,"ECCENTRICITY":0.00015,"INCLINATION":53.2187,"RA_OF_ASC_NODE":255.6229,"ARG_OF_PERICENTER":113.2409,"MEAN_ANOMALY":246.8741,"EPHEMERIS_TYPE":0,"CLASSIFICATION_TYPE":"U","NORAD_CAT_ID":53414,"ELEMENT_SET_NO":999,"REV_AT_EPOCH":6023,"BSTAR":1.6375e-5,"MEAN_MOTION_DOT":-2.7e-7,"MEAN_MOTION_DDOT":0},{"OBJECT_NAME":"STARLINK-4479","OBJECT_ID":"2022-097AD","EPOCH":"2023-09-07T07:31:07.144032","MEAN_MOTION":15.0884118,"ECCENTRICITY":0.0001317,"INCLINATION":53.216,"RA_OF_ASC_NODE":258.9151,"ARG_OF_PERICENTER":90.1496,"MEAN_ANOMALY":269.9647,"EPHEMERIS_TYPE":0,"CLASSIFICATION_TYPE":"U","NORAD_CAT_ID":53415,"ELEMENT_SET_NO":999,"REV_AT_EPOCH":6058,"BSTAR":1.002e-6,"MEAN_MOTION_DOT":-2.72e-6,"MEAN_MOTION_DDOT":0},{"OBJECT_NAME":"STARLINK-4480","OBJECT_ID":"2022-097AE","EPOCH":"2023-09-07T07:09:54.875520","MEAN_MOTION":15.08839761,"ECCENTRICITY":0.0001642,"INCLINATION":53.2166,"RA_OF_ASC_NODE":258.9314,"ARG_OF_PERICENTER":114.8768,"MEAN_ANOMALY":245.2395,"EPHEMERIS_TYPE":0,"CLASSIFICATION_TYPE":"U","NORAD_CAT_ID":53416,"ELEMENT_SET_NO":999,"REV_AT_EPOCH":6058,"BSTAR":9.7131e-6,"MEAN_MOTION_DOT":-1.33e-6,"MEAN_MOTION_DDOT":0},{"OBJECT_NAME":"STARLINK-4484","OBJECT_ID":"2022-097AF","EPOCH":"2023-09-07T10:36:36.419616","MEAN_MOTION":15.088147,"ECCENTRICITY":0.000143,"INCLINATION":53.217,"RA_OF_ASC_NODE":258.3369,"ARG_OF_PERICENTER":93.1201,"MEAN_ANOMALY":266.9955,"EPHEMERIS_TYPE":0,"CLASSIFICATION_TYPE":"U","NORAD_CAT_ID":53417,"ELEMENT_SET_NO":999,"REV_AT_EPOCH":6060,"BSTAR":0.00028359,"MEAN_MOTION_DOT":4.225e-5,"MEAN_MOTION_DDOT":0},{"OBJECT_NAME":"STARLINK-4481","OBJECT_ID":"2022-097AG","EPOCH":"2023-09-07T11:14:55.631616","MEAN_MOTION":15.08845579,"ECCENTRICITY":0.0001401,"INCLINATION":53.2163,"RA_OF_ASC_NODE":247.7795,"ARG_OF_PERICENTER":91.347,"MEAN_ANOMALY":268.7682,"EPHEMERIS_TYPE":0,"CLASSIFICATION_TYPE":"U","NORAD_CAT_ID":53418,"ELEMENT_SET_NO":999,"REV_AT_EPOCH":6078,"BSTAR":4.6053e-5,"MEAN_MOTION_DOT":4.45e-6,"MEAN_MOTION_DDOT":0},{"OBJECT_NAME":"STARLINK-4476","OBJECT_ID":"2022-097AH","EPOCH":"2023-09-07T07:20:31.609824","MEAN_MOTION":15.08837633,"ECCENTRICITY":0.0001668,"INCLINATION":53.2159,"RA_OF_ASC_NODE":258.951,"ARG_OF_PERICENTER":62.3093,"MEAN_ANOMALY":297.8068,"EPHEMERIS_TYPE":0,"CLASSIFICATION_TYPE":"U","NORAD_CAT_ID":53419,"ELEMENT_SET_NO":999,"REV_AT_EPOCH":6058,"BSTAR":1.8967e-5,"MEAN_MOTION_DOT":1.4e-7,"MEAN_MOTION_DDOT":0},{"OBJECT_NAME":"STARLINK-4552","OBJECT_ID":"2022-097AJ","EPOCH":"2023-09-08T00:33:52.027776","MEAN_MOTION":15.08839092,"ECCENTRICITY":0.0001417,"INCLINATION":53.2156,"RA_OF_ASC_NODE":255.7258,"ARG_OF_PERICENTER":86.0246,"MEAN_ANOMALY":274.0908,"EPHEMERIS_TYPE":0,"CLASSIFICATION_TYPE":"U","NORAD_CAT_ID":53420,"ELEMENT_SET_NO":999,"REV_AT_EPOCH":6023,"BSTAR":5.0948e-5,"MEAN_MOTION_DOT":5.23e-6,"MEAN_MOTION_DDOT":0},{"OBJECT_NAME":"STARLINK-4545","OBJECT_ID":"2022-097AK","EPOCH":"2023-09-07T12:01:22.796256","MEAN_MOTION":15.08841717,"ECCENTRICITY":0.0001422,"INCLINATION":53.2165,"RA_OF_ASC_NODE":258.0727,"ARG_OF_PERICENTER":87.7117,"MEAN_ANOMALY":272.4038,"EPHEMERIS_TYPE":0,"CLASSIFICATION_TYPE":"U","NORAD_CAT_ID":53421,"ELEMENT_SET_NO":999,"REV_AT_EPOCH":6061,"BSTAR":7.0005e-5,"MEAN_MOTION_DOT":8.26e-6,"MEAN_MOTION_DDOT":0},{"OBJECT_NAME":"STARLINK-4546","OBJECT_ID":"2022-097AL","EPOCH":"2023-09-08T00:23:16.022688","MEAN_MOTION":15.08843493,"ECCENTRICITY":0.0001362,"INCLINATION":53.2163,"RA_OF_ASC_NODE":255.7569,"ARG_OF_PERICENTER":93.5134,"MEAN_ANOMALY":266.6014,"EPHEMERIS_TYPE":0,"CLASSIFICATION_TYPE":"U","NORAD_CAT_ID":53422,"ELEMENT_SET_NO":999,"REV_AT_EPOCH":6023,"BSTAR":3.8273e-5,"MEAN_MOTION_DOT":3.21e-6,"MEAN_MOTION_DDOT":0},{"OBJECT_NAME":"STARLINK-4539","OBJECT_ID":"2022-097AM","EPOCH":"2023-09-07T07:11:18.306816","MEAN_MOTION":15.0883935,"ECCENTRICITY":0.0001454,"INCLINATION":53.217,"RA_OF_ASC_NODE":258.9868,"ARG_OF_PERICENTER":91.0651,"MEAN_ANOMALY":269.0508,"EPHEMERIS_TYPE":0,"CLASSIFICATION_TYPE":"U","NORAD_CAT_ID":53423,"ELEMENT_SET_NO":999,"REV_AT_EPOCH":6058,"BSTAR":-2.0449e-6,"MEAN_MOTION_DOT":-3.21e-6,"MEAN_MOTION_DDOT":0},{"OBJECT_NAME":"STARLINK-4532","OBJECT_ID":"2022-097AN","EPOCH":"2023-09-07T08:18:48.834720","MEAN_MOTION":15.08842209,"ECCENTRICITY":0.0001381,"INCLINATION":53.216,"RA_OF_ASC_NODE":258.7649,"ARG_OF_PERICENTER":93.381,"MEAN_ANOMALY":266.734,"EPHEMERIS_TYPE":0,"CLASSIFICATION_TYPE":"U","NORAD_CAT_ID":53424,"ELEMENT_SET_NO":999,"REV_AT_EPOCH":6061,"BSTAR":9.8861e-5,"MEAN_MOTION_DOT":1.286e-5,"MEAN_MOTION_DDOT":0},{"OBJECT_NAME":"STARLINK-4531","OBJECT_ID":"2022-097AP","EPOCH":"2023-09-07T18:07:01.649280","MEAN_MOTION":15.08856547,"ECCENTRICITY":0.0001326,"INCLINATION":53.2156,"RA_OF_ASC_NODE":256.932,"ARG_OF_PERICENTER":86.0818,"MEAN_ANOMALY":274.0326,"EPHEMERIS_TYPE":0,"CLASSIFICATION_TYPE":"U","NORAD_CAT_ID":53425,"ELEMENT_SET_NO":999,"REV_AT_EPOCH":6064,"BSTAR":0.00025201,"MEAN_MOTION_DOT":3.727e-5,"MEAN_MOTION_DDOT":0},{"OBJECT_NAME":"STARLINK-4558","OBJECT_ID":"2022-097AQ","EPOCH":"2023-09-07T12:34:31.640448","MEAN_MOTION":15.08841091,"ECCENTRICITY":0.0001358,"INCLINATION":53.2159,"RA_OF_ASC_NODE":248.123,"ARG_OF_PERICENTER":93.9021,"MEAN_ANOMALY":266.2126,"EPHEMERIS_TYPE":0,"CLASSIFICATION_TYPE":"U","NORAD_CAT_ID":53426,"ELEMENT_SET_NO":999,"REV_AT_EPOCH":6077,"BSTAR":5.9701e-5,"MEAN_MOTION_DOT":6.62e-6,"MEAN_MOTION_DDOT":0},{"OBJECT_NAME":"STARLINK-4541","OBJECT_ID":"2022-097AR","EPOCH":"2023-09-07T06:48:44.045568","MEAN_MOTION":15.08861166,"ECCENTRICITY":0.0001288,"INCLINATION":53.2154,"RA_OF_ASC_NODE":259.046,"ARG_OF_PERICENTER":97.983,"MEAN_ANOMALY":262.1308,"EPHEMERIS_TYPE":0,"CLASSIFICATION_TYPE":"U","NORAD_CAT_ID":53427,"ELEMENT_SET_NO":999,"REV_AT_EPOCH":6060,"BSTAR":0.00066838,"MEAN_MOTION_DOT":0.00010371,"MEAN_MOTION_DDOT":0},{"OBJECT_NAME":"STARLINK-4540","OBJECT_ID":"2022-097AS","EPOCH":"2023-09-07T12:23:54.913920","MEAN_MOTION":15.08841377,"ECCENTRICITY":0.0001405,"INCLINATION":53.2166,"RA_OF_ASC_NODE":248.0793,"ARG_OF_PERICENTER":93.7837,"MEAN_ANOMALY":266.3316,"EPHEMERIS_TYPE":0,"CLASSIFICATION_TYPE":"U","NORAD_CAT_ID":53428,"ELEMENT_SET_NO":999,"REV_AT_EPOCH":6077,"BSTAR":6.3172e-5,"MEAN_MOTION_DOT":7.18e-6,"MEAN_MOTION_DDOT":0}]
