STARLINK-4496           
1 53412U 22097AA  23250.51935539  .00000022  00000+0  19458-4 0  9991
2 53412  53.2163 257.9922 0001473  88.7044 271.4117 15.08842321 60158
STARLINK-4500           
1 53413U 22097AB  23250.72544026 -.00000051  00000+0  14870-4 0  9998
2 53413  53.2171 257.0643 0001492  85.3362 274.7800 15.08838859 60679
STARLINK-4304           
1 53414U 22097AC  23251.04559921 -.00000027  00000+0  16375-4 0  9990
2 53414  53.2187 255.6229 0001500 113.2409 246.8741 15.08834455 60238
STARLINK-4479           
1 53415U 22097AD  23250.31327713 -.00000272  00000+0  10020-5 0  9996
2 53415  53.2160 258.9151 0001317  90.1496 269.9647 15.08841180 60587
STARLINK-4480           
1 53416U 22097AE  23250.29855180 -.00000133  00000+0  97131-5 0  9992
2 53416  53.2166 258.9314 0001642 114.8768 245.2395 15.08839761 60581
STARLINK-4484           
1 53417U 22097AF  23250.44208819  .00004225  00000+0  28359-3 0  9990
2 53417  53.2170 258.3369 0001430  93.1201 266.9955 15.08814700 60608
STARLINK-4481           
1 53418U 22097AG  23250.46869944  .00000445  00000+0  46053-4 0  9997
2 53418  53.2163 247.7795 0001401  91.3470 268.7682 15.08845579 60786
STARLINK-4476           
1 53419U 22097AH  23250.30592141  .00000014  00000+0  18967-4 0  9998
2 53419  53.2159 258.9510 0001668  62.3093 297.8068 15.08837633 60586
STARLINK-4552           
1 53420U 22097AJ  23251.02351884  .00000523  00000+0  50948-4 0  9997
2 53420  53.2156 255.7258 0001417  86.0246 274.0908 15.08839092 60237
STARLINK-4545           
1 53421U 22097AK  23250.50095829  .00000826  00000+0  70005-4 0  9996
2 53421  53.2165 258.0727 0001422  87.7117 272.4038 15.08841717 60611
STARLINK-4546           
1 53422U 22097AL  23251.01615767  .00000321  00000+0  38273-4 0  9994
2 53422  53.2163 255.7569 0001362  93.5134 266.6014 15.08843493 60235
STARLINK-4539           
1 53423U 22097AM  23250.29951744 -.00000321  00000+0 -20449-5 0  9991
2 53423  53.2170 258.9868 0001454  91.0651 269.0508 15.08839350 60580
STARLINK-4532           
1 53424U 22097AN  23250.34639855  .00001286  00000+0  98861-4 0  9995
2 53424  53.2160 258.7649 0001381  93.3810 266.7340 15.08842209 60615
STARLINK-4531           
1 53425U 22097AP  23250.75488020  .00003727  00000+0  25201-3 0  9996
2 53425  53.2156 256.9320 0001326  86.0818 274.0326 15.08856547 60642
STARLINK-4558           
1 53426U 22097AQ  23250.52397732  .00000662  00000+0  59701-4 0  9999
2 53426  53.2159 248.1230 0001358  93.9021 266.2126 15.08841091 60770
STARLINK-4541           
1 53427U 22097AR  23250.28384312  .00010371  00000+0  66838-3 0  9999
2 53427  53.2154 259.0460 0001288  97.9830 262.1308 15.08861166 60600
STARLINK-4540           
1 53428U 22097AS  23250.51660780  .00000718  00000+0  63172-4 0  9995
2 53428  53.2166 248.0793 0001405  93.7837 266.3316 15.08841377 60778
